{
    "links": {
        "self": "http://www.neowsapp.com/rest/v1/neo/3647274?api_key=iIulBulltgU6a56xZRHN4H3l9WmuAYTsLGpBGhQ2"
    },
    "id": "3647274",
    "neo_reference_id": "3647274",
    "name": "(2013 RD21)",
    "designation": "2013 RD21",
    "nasa_jpl_url": "http://ssd.jpl.nasa.gov/sbdb.cgi?sstr=3647274",
    "absolute_magnitude_h": 18.3,
    "estimated_diameter": {
        "kilometers": {
            "estimated_diameter_min": 0.5815070396,
            "estimated_diameter_max": 1.30028927
        },
        "meters": {
            "estimated_diameter_min": 581.5070396458,
            "estimated_diameter_max": 1300.2892700427
        },
        "miles": {
            "estimated_diameter_min": 0.3613316107,
            "estimated_diameter_max": 0.807962044
        },
        "feet": {
            "estimated_diameter_min": 1907.8315559515,
            "estimated_diameter_max": 4266.0410487267
        }
    },
    "is_potentially_hazardous_asteroid": false,
    "close_approach_data": [
        {
            "close_approach_date": "2013-03-02",
            "close_approach_date_full": "2013-Mar-02 22:22",
            "epoch_date_close_approach": 1362262920000,
            "relative_velocity": {
                "kilometers_per_second": "28.2686141747",
                "kilometers_per_hour": "101767.0110289639",
                "miles_per_hour": "63234.0630474137"
            },
            "miss_distance": {
                "astronomical": "0.2420917247",
                "lunar": "94.1736809083",
                "kilometers": "36216406.359746389",
                "miles": "22503831.3954186082"
            },
            "orbiting_body": "Earth"
        }
    ],
    "orbital_data": {
        "orbit_id": "11",
        "orbit_determination_date": "2019-08-06 05:56:30",
        "first_observation_date": "2013-09-01",
        "last_observation_date": "2013-10-03",
        "data_arc_in_days": 32,
        "observations_used": 37,
        "orbit_uncertainty": "7",
        "minimum_orbit_intersection": ".0914907",
        "jupiter_tisserand_invariant": "2.561",
        "epoch_osculation": "2459000.5",
        "eccentricity": ".7364953383278494",
        "semi_major_axis": "3.164710859743136",
        "inclination": "29.71454775741653",
        "ascending_node_longitude": "165.9463520069496",
        "orbital_period": "2056.361588239321",
        "perihelion_distance": ".8339160643867958",
        "perihelion_argument": "67.35606459907851",
        "aphelion_distance": "5.495505655099476",
        "perihelion_time": "2458451.724675407533",
        "mean_anomaly": "96.07216842755768",
        "mean_motion": ".1750664873623884",
        "equinox": "J2000",
        "orbit_class": {
            "orbit_class_type": "APO",
            "orbit_class_description": "Near-Earth asteroid orbits which cross the Earth’s orbit similar to that of 1862 Apollo",
            "orbit_class_range": "a (semi-major axis) > 1.0 AU; q (perihelion) < 1.017 AU"
        }
    },
    "is_sentry_object": false
}